{"type": "FeatureCollection", "generated_at_utc": "2026-10-03T12:02:34.507796+00:00", "features": [{"type": "Feature", "geometry": {"type": "Point", "coordinates": [97.1406021118, 21.7745876312]}, "properties": {"satellite": "S3B", "acquisition_time_utc": "2026-10-02T15:11:38.104Z", "frp_mw": 4.3975739479, "frp_uncertainty_mw": 0.5157654881, "classification": 1, "product_id": "18c1b933-4be2-481e-9cc1-36ecbcbc5539", "product_name": "S3B_SL_2_FRP____20261002T151114_20261002T151414_20261002T160232_0179_125_168______MAR_O_NR_003.SEN3"}}, {"type": "Feature", "geometry": {"type": "Point", "coordinates": [86.0146560669, 20.9604949951]}, "properties": {"satellite": "S3A", "acquisition_time_utc": "2026-10-02T15:50:19.491Z", "frp_mw": 20.5233879089, "frp_uncertainty_mw": 2.2454342842, "classification": 1, "product_id": "3559fffb-4dff-4889-b3bc-22361832cfd5", "product_name": "S3A_SL_2_FRP____20261002T154956_20261002T155256_20261002T164212_0179_144_311______MAR_O_NR_003.SEN3"}}, {"type": "Feature", "geometry": {"type": "Point", "coordinates": [88.1266784668, 22.0548362732]}, "properties": {"satellite": "S3A", "acquisition_time_utc": "2026-10-02T15:50:20.372Z", "frp_mw": 11.0897636414, "frp_uncertainty_mw": 1.1570118666, "classification": 1, "product_id": "3559fffb-4dff-4889-b3bc-22361832cfd5", "product_name": "S3A_SL_2_FRP____20261002T154956_20261002T155256_20261002T164212_0179_144_311______MAR_O_NR_003.SEN3"}}, {"type": "Feature", "geometry": {"type": "Point", "coordinates": [85.269744873, 20.7947731018]}, "properties": {"satellite": "S3A", "acquisition_time_utc": "2026-10-02T15:50:24.596Z", "frp_mw": 6.8199725151, "frp_uncertainty_mw": 1.3388668299, "classification": 1, "product_id": "3559fffb-4dff-4889-b3bc-22361832cfd5", "product_name": "S3A_SL_2_FRP____20261002T154956_20261002T155256_20261002T164212_0179_144_311______MAR_O_NR_003.SEN3"}}, {"type": "Feature", "geometry": {"type": "Point", "coordinates": [85.2601547241, 20.7873363495]}, "properties": {"satellite": "S3A", "acquisition_time_utc": "2026-10-02T15:50:24.596Z", "frp_mw": 8.7612762451, "frp_uncertainty_mw": 1.0450468063, "classification": 1, "product_id": "3559fffb-4dff-4889-b3bc-22361832cfd5", "product_name": "S3A_SL_2_FRP____20261002T154956_20261002T155256_20261002T164212_0179_144_311______MAR_O_NR_003.SEN3"}}, {"type": "Feature", "geometry": {"type": "Point", "coordinates": [85.2653884888, 20.8015193939]}, "properties": {"satellite": "S3A", "acquisition_time_utc": "2026-10-02T15:50:24.896Z", "frp_mw": 6.7573895454, "frp_uncertainty_mw": 0.9513046741, "classification": 1, "product_id": "3559fffb-4dff-4889-b3bc-22361832cfd5", "product_name": "S3A_SL_2_FRP____20261002T154956_20261002T155256_20261002T164212_0179_144_311______MAR_O_NR_003.SEN3"}}, {"type": "Feature", "geometry": {"type": "Point", "coordinates": [85.0051345825, 20.8628864288]}, "properties": {"satellite": "S3A", "acquisition_time_utc": "2026-10-02T15:50:28.498Z", "frp_mw": 8.3965215683, "frp_uncertainty_mw": 1.0695136786, "classification": 1, "product_id": "3559fffb-4dff-4889-b3bc-22361832cfd5", "product_name": "S3A_SL_2_FRP____20261002T154956_20261002T155256_20261002T164212_0179_144_311______MAR_O_NR_003.SEN3"}}, {"type": "Feature", "geometry": {"type": "Point", "coordinates": [84.9955291748, 20.8550491333]}, "properties": {"satellite": "S3A", "acquisition_time_utc": "2026-10-02T15:50:28.498Z", "frp_mw": 6.151714325, "frp_uncertainty_mw": 0.9447308183, "classification": 1, "product_id": "3559fffb-4dff-4889-b3bc-22361832cfd5", "product_name": "S3A_SL_2_FRP____20261002T154956_20261002T155256_20261002T164212_0179_144_311______MAR_O_NR_003.SEN3"}}, {"type": "Feature", "geometry": {"type": "Point", "coordinates": [85.0532989502, 21.0735225677]}, "properties": {"satellite": "S3A", "acquisition_time_utc": "2026-10-02T15:50:30.897Z", "frp_mw": 9.1183862686, "frp_uncertainty_mw": 2.4395899773, "classification": 1, "product_id": "3559fffb-4dff-4889-b3bc-22361832cfd5", "product_name": "S3A_SL_2_FRP____20261002T154956_20261002T155256_20261002T164212_0179_144_311______MAR_O_NR_003.SEN3"}}, {"type": "Feature", "geometry": {"type": "Point", "coordinates": [85.0487136841, 21.0801048279]}, "properties": {"satellite": "S3A", "acquisition_time_utc": "2026-10-02T15:50:31.197Z", "frp_mw": 5.1033673286, "frp_uncertainty_mw": 1.54233706, "classification": 1, "product_id": "3559fffb-4dff-4889-b3bc-22361832cfd5", "product_name": "S3A_SL_2_FRP____20261002T154956_20261002T155256_20261002T164212_0179_144_311______MAR_O_NR_003.SEN3"}}, {"type": "Feature", "geometry": {"type": "Point", "coordinates": [85.039024353, 21.0723876953]}, "properties": {"satellite": "S3A", "acquisition_time_utc": "2026-10-02T15:50:31.197Z", "frp_mw": 8.1350069046, "frp_uncertainty_mw": 0.8601292372, "classification": 1, "product_id": "3559fffb-4dff-4889-b3bc-22361832cfd5", "product_name": "S3A_SL_2_FRP____20261002T154956_20261002T155256_20261002T164212_0179_144_311______MAR_O_NR_003.SEN3"}}, {"type": "Feature", "geometry": {"type": "Point", "coordinates": [85.8640289307, 23.7546043396]}, "properties": {"satellite": "S3A", "acquisition_time_utc": "2026-10-02T15:51:01.484Z", "frp_mw": 9.8950119019, "frp_uncertainty_mw": 1.0141685009, "classification": 1, "product_id": "3559fffb-4dff-4889-b3bc-22361832cfd5", "product_name": "S3A_SL_2_FRP____20261002T154956_20261002T155256_20261002T164212_0179_144_311______MAR_O_NR_003.SEN3"}}, {"type": "Feature", "geometry": {"type": "Point", "coordinates": [79.4347763062, 11.1728935242]}, "properties": {"satellite": "S3B", "acquisition_time_utc": "2026-10-02T16:49:27.363Z", "frp_mw": 5.2072310448, "frp_uncertainty_mw": 0.5533048511, "classification": 1, "product_id": "9dae84c3-785f-4324-aa58-a1078afee953", "product_name": "S3B_SL_2_FRP____20261002T164613_20261002T164913_20261002T174243_0179_125_169______MAR_O_NR_003.SEN3"}}, {"type": "Feature", "geometry": {"type": "Point", "coordinates": [76.6764678955, 15.1775779724]}, "properties": {"satellite": "S3B", "acquisition_time_utc": "2026-10-02T16:50:33.377Z", "frp_mw": 4.1727237701, "frp_uncertainty_mw": 0.7477942109, "classification": 1, "product_id": "79a9ec8a-5aea-4c35-95d3-23b081c3656a", "product_name": "S3B_SL_2_FRP____20261002T164913_20261002T165213_20261002T174232_0180_125_169______MAR_O_NR_003.SEN3"}}, {"type": "Feature", "geometry": {"type": "Point", "coordinates": [76.6640167236, 15.1860189438]}, "properties": {"satellite": "S3B", "acquisition_time_utc": "2026-10-02T16:50:33.377Z", "frp_mw": 7.4077601433, "frp_uncertainty_mw": 1.5729768276, "classification": 1, "product_id": "79a9ec8a-5aea-4c35-95d3-23b081c3656a", "product_name": "S3B_SL_2_FRP____20261002T164913_20261002T165213_20261002T174232_0180_125_169______MAR_O_NR_003.SEN3"}}, {"type": "Feature", "geometry": {"type": "Point", "coordinates": [76.6571655273, 15.1766395569]}, "properties": {"satellite": "S3B", "acquisition_time_utc": "2026-10-02T16:50:33.377Z", "frp_mw": 5.5318341255, "frp_uncertainty_mw": 1.4985630512, "classification": 1, "product_id": "79a9ec8a-5aea-4c35-95d3-23b081c3656a", "product_name": "S3B_SL_2_FRP____20261002T164913_20261002T165213_20261002T174232_0180_125_169______MAR_O_NR_003.SEN3"}}, {"type": "Feature", "geometry": {"type": "Point", "coordinates": [76.6543807983, 15.1855487823]}, "properties": {"satellite": "S3B", "acquisition_time_utc": "2026-10-02T16:50:33.377Z", "frp_mw": 4.327776432, "frp_uncertainty_mw": 1.4937691689, "classification": 1, "product_id": "79a9ec8a-5aea-4c35-95d3-23b081c3656a", "product_name": "S3B_SL_2_FRP____20261002T164913_20261002T165213_20261002T174232_0180_125_169______MAR_O_NR_003.SEN3"}}, {"type": "Feature", "geometry": {"type": "Point", "coordinates": [76.3769302368, 15.1670656204]}, "properties": {"satellite": "S3B", "acquisition_time_utc": "2026-10-02T16:50:33.379Z", "frp_mw": 4.2514328957, "frp_uncertainty_mw": 0.5505853295, "classification": 1, "product_id": "79a9ec8a-5aea-4c35-95d3-23b081c3656a", "product_name": "S3B_SL_2_FRP____20261002T164913_20261002T165213_20261002T174232_0180_125_169______MAR_O_NR_003.SEN3"}}, {"type": "Feature", "geometry": {"type": "Point", "coordinates": [78.6663513184, 15.1157131195]}, "properties": {"satellite": "S3B", "acquisition_time_utc": "2026-10-02T16:50:34.560Z", "frp_mw": 7.2118396759, "frp_uncertainty_mw": 0.9579755068, "classification": 1, "product_id": "79a9ec8a-5aea-4c35-95d3-23b081c3656a", "product_name": "S3B_SL_2_FRP____20261002T164913_20261002T165213_20261002T174232_0180_125_169______MAR_O_NR_003.SEN3"}}, {"type": "Feature", "geometry": {"type": "Point", "coordinates": [74.4724655151, 18.5644931793]}, "properties": {"satellite": "S3B", "acquisition_time_utc": "2026-10-02T16:51:33.687Z", "frp_mw": 3.2864692211, "frp_uncertainty_mw": 0.3788487315, "classification": 1, "product_id": "79a9ec8a-5aea-4c35-95d3-23b081c3656a", "product_name": "S3B_SL_2_FRP____20261002T164913_20261002T165213_20261002T174232_0180_125_169______MAR_O_NR_003.SEN3"}}, {"type": "Feature", "geometry": {"type": "Point", "coordinates": [72.6502685547, 21.1113510132]}, "properties": {"satellite": "S3B", "acquisition_time_utc": "2026-10-02T16:52:22.595Z", "frp_mw": 2.2225344181, "frp_uncertainty_mw": 1.9565650225, "classification": 1, "product_id": "70bca530-41e9-4b77-95b8-a7beb2ad2062", "product_name": "S3B_SL_2_FRP____20261002T165213_20261002T165513_20261002T174239_0179_125_169______MAR_O_NR_003.SEN3"}}, {"type": "Feature", "geometry": {"type": "Point", "coordinates": [72.6410446167, 21.1079349518]}, "properties": {"satellite": "S3B", "acquisition_time_utc": "2026-10-02T16:52:22.595Z", "frp_mw": 27.7242050171, "frp_uncertainty_mw": 2.8364460468, "classification": 1, "product_id": "70bca530-41e9-4b77-95b8-a7beb2ad2062", "product_name": "S3B_SL_2_FRP____20261002T165213_20261002T165513_20261002T174239_0179_125_169______MAR_O_NR_003.SEN3"}}, {"type": "Feature", "geometry": {"type": "Point", "coordinates": [72.6394042969, 21.1170597076]}, "properties": {"satellite": "S3B", "acquisition_time_utc": "2026-10-02T16:52:22.595Z", "frp_mw": 1.4946131706, "frp_uncertainty_mw": 1.6596410275, "classification": 1, "product_id": "70bca530-41e9-4b77-95b8-a7beb2ad2062", "product_name": "S3B_SL_2_FRP____20261002T165213_20261002T165513_20261002T174239_0179_125_169______MAR_O_NR_003.SEN3"}}, {"type": "Feature", "geometry": {"type": "Point", "coordinates": [72.6318206787, 21.1045055389]}, "properties": {"satellite": "S3B", "acquisition_time_utc": "2026-10-02T16:52:22.595Z", "frp_mw": 22.2371425629, "frp_uncertainty_mw": 2.2907614708, "classification": 1, "product_id": "70bca530-41e9-4b77-95b8-a7beb2ad2062", "product_name": "S3B_SL_2_FRP____20261002T165213_20261002T165513_20261002T174239_0179_125_169______MAR_O_NR_003.SEN3"}}, {"type": "Feature", "geometry": {"type": "Point", "coordinates": [72.6301803589, 21.1136341095]}, "properties": {"satellite": "S3B", "acquisition_time_utc": "2026-10-02T16:52:22.595Z", "frp_mw": 4.2299790382, "frp_uncertainty_mw": 1.7084653378, "classification": 1, "product_id": "70bca530-41e9-4b77-95b8-a7beb2ad2062", "product_name": "S3B_SL_2_FRP____20261002T165213_20261002T165513_20261002T174239_0179_125_169______MAR_O_NR_003.SEN3"}}, {"type": "Feature", "geometry": {"type": "Point", "coordinates": [72.6226196289, 21.1010780334]}, "properties": {"satellite": "S3B", "acquisition_time_utc": "2026-10-02T16:52:22.595Z", "frp_mw": 2.3451464176, "frp_uncertainty_mw": 1.6722944975, "classification": 1, "product_id": "70bca530-41e9-4b77-95b8-a7beb2ad2062", "product_name": "S3B_SL_2_FRP____20261002T165213_20261002T165513_20261002T174239_0179_125_169______MAR_O_NR_003.SEN3"}}, {"type": "Feature", "geometry": {"type": "Point", "coordinates": [72.9709396362, 21.4327487946]}, "properties": {"satellite": "S3B", "acquisition_time_utc": "2026-10-02T16:52:25.891Z", "frp_mw": 5.6977529526, "frp_uncertainty_mw": 0.6313029528, "classification": 1, "product_id": "70bca530-41e9-4b77-95b8-a7beb2ad2062", "product_name": "S3B_SL_2_FRP____20261002T165213_20261002T165513_20261002T174239_0179_125_169______MAR_O_NR_003.SEN3"}}, {"type": "Feature", "geometry": {"type": "Point", "coordinates": [73.4627532959, 22.4710845947]}, "properties": {"satellite": "S3B", "acquisition_time_utc": "2026-10-02T16:52:40.285Z", "frp_mw": 2.4974756241, "frp_uncertainty_mw": 0.3639077544, "classification": 1, "product_id": "70bca530-41e9-4b77-95b8-a7beb2ad2062", "product_name": "S3B_SL_2_FRP____20261002T165213_20261002T165513_20261002T174239_0179_125_169______MAR_O_NR_003.SEN3"}}, {"type": "Feature", "geometry": {"type": "Point", "coordinates": [74.9275588989, 24.6581707001]}, "properties": {"satellite": "S3B", "acquisition_time_utc": "2026-10-02T16:53:13.868Z", "frp_mw": 2.9615039825, "frp_uncertainty_mw": 0.4125032723, "classification": 1, "product_id": "70bca530-41e9-4b77-95b8-a7beb2ad2062", "product_name": "S3B_SL_2_FRP____20261002T165213_20261002T165513_20261002T174239_0179_125_169______MAR_O_NR_003.SEN3"}}, {"type": "Feature", "geometry": {"type": "Point", "coordinates": [68.9121017456, 26.2371387482]}, "properties": {"satellite": "S3B", "acquisition_time_utc": "2026-10-02T16:54:07.909Z", "frp_mw": 4.060541153, "frp_uncertainty_mw": 0.4303100407, "classification": 1, "product_id": "70bca530-41e9-4b77-95b8-a7beb2ad2062", "product_name": "S3B_SL_2_FRP____20261002T165213_20261002T165513_20261002T174239_0179_125_169______MAR_O_NR_003.SEN3"}}, {"type": "Feature", "geometry": {"type": "Point", "coordinates": [70.8116607666, 27.4130802155]}, "properties": {"satellite": "S3B", "acquisition_time_utc": "2026-10-02T16:54:10.592Z", "frp_mw": 3.2070491314, "frp_uncertainty_mw": 0.5001742244, "classification": 1, "product_id": "70bca530-41e9-4b77-95b8-a7beb2ad2062", "product_name": "S3B_SL_2_FRP____20261002T165213_20261002T165513_20261002T174239_0179_125_169______MAR_O_NR_003.SEN3"}}, {"type": "Feature", "geometry": {"type": "Point", "coordinates": [72.6443786621, 21.133928299]}, "properties": {"satellite": "S3A", "acquisition_time_utc": "2026-10-02T17:31:35.634Z", "frp_mw": 36.1368484497, "frp_uncertainty_mw": 3.8408994675, "classification": 1, "product_id": "c3de2cde-8e29-4281-a157-2e6558ab0cf9", "product_name": "S3A_SL_2_FRP____20261002T172756_20261002T173056_20261002T182126_0180_144_312______MAR_O_NR_003.SEN3"}}, {"type": "Feature", "geometry": {"type": "Point", "coordinates": [91.8181228638, 29.3302288055]}, "properties": {"satellite": "S3B", "acquisition_time_utc": "2026-10-03T03:36:00.512Z", "frp_mw": 102.6373748779, "frp_uncertainty_mw": 19.4531002045, "classification": 1, "product_id": "dadcc622-7779-4179-a9f5-d7403ec99554", "product_name": "S3B_SL_2_FRP____20261003T033409_20261003T033709_20261003T052313_0179_125_175______MAR_O_NR_003.SEN3"}}, {"type": "Feature", "geometry": {"type": "Point", "coordinates": [91.8077545166, 29.330373764]}, "properties": {"satellite": "S3B", "acquisition_time_utc": "2026-10-03T03:36:00.812Z", "frp_mw": 94.3834457397, "frp_uncertainty_mw": 20.9338741302, "classification": 1, "product_id": "dadcc622-7779-4179-a9f5-d7403ec99554", "product_name": "S3B_SL_2_FRP____20261003T033409_20261003T033709_20261003T052313_0179_125_175______MAR_O_NR_003.SEN3"}}, {"type": "Feature", "geometry": {"type": "Point", "coordinates": [95.776725769, 32.0694618225]}, "properties": {"satellite": "S3A", "acquisition_time_utc": "2026-10-03T04:12:15.093Z", "frp_mw": 13.3070421219, "frp_uncertainty_mw": 1.8952649832, "classification": 1, "product_id": "266f7189-86d7-49c2-9389-cd9678f4bfde", "product_name": "S3A_SL_2_FRP____20261003T040951_20261003T041251_20261003T060244_0179_144_318______MAR_O_NR_003.SEN3"}}, {"type": "Feature", "geometry": {"type": "Point", "coordinates": [96.3696212769, 31.7507400513]}, "properties": {"satellite": "S3A", "acquisition_time_utc": "2026-10-03T04:12:21.697Z", "frp_mw": 9.3958358765, "frp_uncertainty_mw": 1.4845678806, "classification": 1, "product_id": "266f7189-86d7-49c2-9389-cd9678f4bfde", "product_name": "S3A_SL_2_FRP____20261003T040951_20261003T041251_20261003T060244_0179_144_318______MAR_O_NR_003.SEN3"}}, {"type": "Feature", "geometry": {"type": "Point", "coordinates": [95.1067810059, 31.2450618744]}, "properties": {"satellite": "S3A", "acquisition_time_utc": "2026-10-03T04:12:28.889Z", "frp_mw": 9.134847641, "frp_uncertainty_mw": 1.564920783, "classification": 1, "product_id": "266f7189-86d7-49c2-9389-cd9678f4bfde", "product_name": "S3A_SL_2_FRP____20261003T040951_20261003T041251_20261003T060244_0179_144_318______MAR_O_NR_003.SEN3"}}, {"type": "Feature", "geometry": {"type": "Point", "coordinates": [94.3884048462, 29.6235637665]}, "properties": {"satellite": "S3A", "acquisition_time_utc": "2026-10-03T04:12:56.486Z", "frp_mw": 13.3504638672, "frp_uncertainty_mw": 2.0093312263, "classification": 1, "product_id": "266f7189-86d7-49c2-9389-cd9678f4bfde", "product_name": "S3A_SL_2_FRP____20261003T040951_20261003T041251_20261003T060244_0179_144_318______MAR_O_NR_003.SEN3"}}, {"type": "Feature", "geometry": {"type": "Point", "coordinates": [90.1567611694, 28.7237377167]}, "properties": {"satellite": "S3A", "acquisition_time_utc": "2026-10-03T04:13:21.955Z", "frp_mw": 5.6225924492, "frp_uncertainty_mw": 1.3246068954, "classification": 1, "product_id": "c38a99ae-826c-4573-a9c7-b400cac0fa7c", "product_name": "S3A_SL_2_FRP____20261003T041251_20261003T041551_20261003T060212_0180_144_318______MAR_O_NR_003.SEN3"}}, {"type": "Feature", "geometry": {"type": "Point", "coordinates": [85.8621292114, 23.7444534302]}, "properties": {"satellite": "S3A", "acquisition_time_utc": "2026-10-03T04:15:11.127Z", "frp_mw": 15.8583927155, "frp_uncertainty_mw": 1.9250376225, "classification": 1, "product_id": "c38a99ae-826c-4573-a9c7-b400cac0fa7c", "product_name": "S3A_SL_2_FRP____20261003T041251_20261003T041551_20261003T060212_0180_144_318______MAR_O_NR_003.SEN3"}}, {"type": "Feature", "geometry": {"type": "Point", "coordinates": [84.5020751953, 23.3324890137]}, "properties": {"satellite": "S3A", "acquisition_time_utc": "2026-10-03T04:15:32.718Z", "frp_mw": 13.4619693756, "frp_uncertainty_mw": 2.0777387619, "classification": 1, "product_id": "c38a99ae-826c-4573-a9c7-b400cac0fa7c", "product_name": "S3A_SL_2_FRP____20261003T041251_20261003T041551_20261003T060212_0180_144_318______MAR_O_NR_003.SEN3"}}, {"type": "Feature", "geometry": {"type": "Point", "coordinates": [84.9811553955, 20.8812866211]}, "properties": {"satellite": "S3A", "acquisition_time_utc": "2026-10-03T04:16:02.723Z", "frp_mw": 19.7248325348, "frp_uncertainty_mw": 4.2466926575, "classification": 1, "product_id": "c38a99ae-826c-4573-a9c7-b400cac0fa7c", "product_name": "S3A_SL_2_FRP____20261003T041251_20261003T041551_20261003T060212_0180_144_318______MAR_O_NR_003.SEN3"}}, {"type": "Feature", "geometry": {"type": "Point", "coordinates": [84.9914474487, 20.8734493256]}, "properties": {"satellite": "S3A", "acquisition_time_utc": "2026-10-03T04:16:02.723Z", "frp_mw": 24.644405365, "frp_uncertainty_mw": 4.2639532089, "classification": 1, "product_id": "c38a99ae-826c-4573-a9c7-b400cac0fa7c", "product_name": "S3A_SL_2_FRP____20261003T041251_20261003T041551_20261003T060212_0180_144_318______MAR_O_NR_003.SEN3"}}, {"type": "Feature", "geometry": {"type": "Point", "coordinates": [81.7848052979, 7.2474431992]}, "properties": {"satellite": "S3A", "acquisition_time_utc": "2026-10-03T04:19:57.310Z", "frp_mw": 28.0748195648, "frp_uncertainty_mw": 6.7814378738, "classification": 1, "product_id": "fa44c7d5-4741-4a4f-bfc0-411dad481bb0", "product_name": "S3A_SL_2_FRP____20261003T041851_20261003T042151_20261003T060207_0179_144_318______MAR_O_NR_003.SEN3"}}, {"type": "Feature", "geometry": {"type": "Point", "coordinates": [78.5380935669, 34.8982315063]}, "properties": {"satellite": "S3B", "acquisition_time_utc": "2026-10-03T05:13:45.680Z", "frp_mw": 8.5669317245, "frp_uncertainty_mw": 1.8241741657, "classification": 1, "product_id": "98a6fab7-ab98-4f0d-b184-1655ec9c6a17", "product_name": "S3B_SL_2_FRP____20261003T051208_20261003T051508_20261003T070558_0179_125_176______MAR_O_NR_003.SEN3"}}, {"type": "Feature", "geometry": {"type": "Point", "coordinates": [76.5894546509, 32.9553413391]}, "properties": {"satellite": "S3B", "acquisition_time_utc": "2026-10-03T05:14:23.168Z", "frp_mw": 11.8831472397, "frp_uncertainty_mw": 2.1343388557, "classification": 1, "product_id": "98a6fab7-ab98-4f0d-b184-1655ec9c6a17", "product_name": "S3B_SL_2_FRP____20261003T051208_20261003T051508_20261003T070558_0179_125_176______MAR_O_NR_003.SEN3"}}, {"type": "Feature", "geometry": {"type": "Point", "coordinates": [77.6317214966, 23.009677887]}, "properties": {"satellite": "S3B", "acquisition_time_utc": "2026-10-03T05:17:06.691Z", "frp_mw": 10.6052131653, "frp_uncertainty_mw": 2.6299364567, "classification": 1, "product_id": "b5d5aa8f-1e58-46b9-b125-ae39fe997547", "product_name": "S3B_SL_2_FRP____20261003T051508_20261003T051808_20261003T070515_0179_125_176______MAR_O_NR_003.SEN3"}}, {"type": "Feature", "geometry": {"type": "Point", "coordinates": [73.0411300659, 18.6815319061]}, "properties": {"satellite": "S3B", "acquisition_time_utc": "2026-10-03T05:18:25.260Z", "frp_mw": 26.5199546814, "frp_uncertainty_mw": 4.0556135178, "classification": 1, "product_id": "823782e3-79da-4100-b35e-863e9f0d7cab", "product_name": "S3B_SL_2_FRP____20261003T051808_20261003T052108_20261003T070511_0179_125_176______MAR_O_NR_003.SEN3"}}, {"type": "Feature", "geometry": {"type": "Point", "coordinates": [75.5268630981, 14.6852045059]}, "properties": {"satellite": "S3B", "acquisition_time_utc": "2026-10-03T05:19:28.287Z", "frp_mw": 12.2316894531, "frp_uncertainty_mw": 2.8176422119, "classification": 1, "product_id": "823782e3-79da-4100-b35e-863e9f0d7cab", "product_name": "S3B_SL_2_FRP____20261003T051808_20261003T052108_20261003T070511_0179_125_176______MAR_O_NR_003.SEN3"}}, {"type": "Feature", "geometry": {"type": "Point", "coordinates": [70.3727493286, 35.1527175903]}, "properties": {"satellite": "S3A", "acquisition_time_utc": "2026-10-03T05:52:21.416Z", "frp_mw": 6.8214306831, "frp_uncertainty_mw": 1.5357114077, "classification": 1, "product_id": "b41d1a1a-777e-4bc8-803f-73564c46af1a", "product_name": "S3A_SL_2_FRP____20261003T055050_20261003T055350_20261003T074741_0180_144_319______MAR_O_NR_003.SEN3"}}, {"type": "Feature", "geometry": {"type": "Point", "coordinates": [68.5137023926, 28.2813796997]}, "properties": {"satellite": "S3A", "acquisition_time_utc": "2026-10-03T05:54:18.712Z", "frp_mw": 10.7537250519, "frp_uncertainty_mw": 1.8031935692, "classification": 1, "product_id": "b6e131a0-88da-4111-83a8-bc8d0388bfe6", "product_name": "S3A_SL_2_FRP____20261003T055350_20261003T055650_20261003T074756_0179_144_319______MAR_O_NR_003.SEN3"}}, {"type": "Feature", "geometry": {"type": "Point", "coordinates": [68.5248031616, 28.2813472748]}, "properties": {"satellite": "S3A", "acquisition_time_utc": "2026-10-03T05:54:18.712Z", "frp_mw": 14.5574426651, "frp_uncertainty_mw": 3.1779854298, "classification": 1, "product_id": "b6e131a0-88da-4111-83a8-bc8d0388bfe6", "product_name": "S3A_SL_2_FRP____20261003T055350_20261003T055650_20261003T074756_0179_144_319______MAR_O_NR_003.SEN3"}}, {"type": "Feature", "geometry": {"type": "Point", "coordinates": [70.3075332642, 28.2824478149]}, "properties": {"satellite": "S3A", "acquisition_time_utc": "2026-10-03T05:54:20.824Z", "frp_mw": 12.5617656708, "frp_uncertainty_mw": 1.9753360748, "classification": 1, "product_id": "b6e131a0-88da-4111-83a8-bc8d0388bfe6", "product_name": "S3A_SL_2_FRP____20261003T055350_20261003T055650_20261003T074756_0179_144_319______MAR_O_NR_003.SEN3"}}, {"type": "Feature", "geometry": {"type": "Point", "coordinates": [69.0041122437, 28.0812492371]}, "properties": {"satellite": "S3A", "acquisition_time_utc": "2026-10-03T05:54:22.316Z", "frp_mw": 10.4903860092, "frp_uncertainty_mw": 2.7283716202, "classification": 1, "product_id": "b6e131a0-88da-4111-83a8-bc8d0388bfe6", "product_name": "S3A_SL_2_FRP____20261003T055350_20261003T055650_20261003T074756_0179_144_319______MAR_O_NR_003.SEN3"}}, {"type": "Feature", "geometry": {"type": "Point", "coordinates": [68.0212402344, 27.2096805573]}, "properties": {"satellite": "S3A", "acquisition_time_utc": "2026-10-03T05:54:37.010Z", "frp_mw": 10.2550783157, "frp_uncertainty_mw": 2.6964585781, "classification": 1, "product_id": "b6e131a0-88da-4111-83a8-bc8d0388bfe6", "product_name": "S3A_SL_2_FRP____20261003T055350_20261003T055650_20261003T074756_0179_144_319______MAR_O_NR_003.SEN3"}}, {"type": "Feature", "geometry": {"type": "Point", "coordinates": [68.1966018677, 26.4350833893]}, "properties": {"satellite": "S3A", "acquisition_time_utc": "2026-10-03T05:54:50.212Z", "frp_mw": 11.8219079971, "frp_uncertainty_mw": 3.2570450306, "classification": 1, "product_id": "b6e131a0-88da-4111-83a8-bc8d0388bfe6", "product_name": "S3A_SL_2_FRP____20261003T055350_20261003T055650_20261003T074756_0179_144_319______MAR_O_NR_003.SEN3"}}, {"type": "Feature", "geometry": {"type": "Point", "coordinates": [68.0595855713, 24.2540206909]}, "properties": {"satellite": "S3A", "acquisition_time_utc": "2026-10-03T05:55:27.714Z", "frp_mw": 8.3656463623, "frp_uncertainty_mw": 2.110827446, "classification": 1, "product_id": "b6e131a0-88da-4111-83a8-bc8d0388bfe6", "product_name": "S3A_SL_2_FRP____20261003T055350_20261003T055650_20261003T074756_0179_144_319______MAR_O_NR_003.SEN3"}}]}